{
  "type": "FeatureCollection",
  "features": [
    {
      "type": "Feature",
      "properties": {
        "norad_id": 41330,
        "name": "COSMOS 2514 (751)",
        "group": "gnss",
        "lat": 45.199753076290165,
        "lon": -12.692103764099295,
        "alt_km": 19155.213519414658,
        "timestamp": "2025-12-10T05:46:14.064528+00:00",
        "meta_object_name": "COSMOS 2514 (751)",
        "meta_object_id": "2016-008A",
        "meta_epoch": "2025-12-09T05:37:58.803168",
        "meta_mean_motion": 2.13102552,
        "meta_eccentricity": 0.0012231,
        "meta_inclination": 65.1358,
        "meta_ra_of_asc_node": 319.5239,
        "meta_arg_of_pericenter": 220.0476,
        "meta_mean_anomaly": 139.8584,
        "meta_ephemeris_type": 0,
        "meta_classification_type": "U",
        "meta_norad_cat_id": 41330,
        "meta_element_set_no": 999,
        "meta_rev_at_epoch": 7657,
        "meta_bstar": 0,
        "meta_mean_motion_dot": -4.9e-07,
        "meta_mean_motion_ddot": 0,
        "tle_line1": "1 41330U 16008A   25343.23470837 -.00000049  00000+0  00000+0 0  9999",
        "tle_line2": "2 41330  65.1358 319.5239 0012231 220.0476 139.8584  2.13102552 76577"
      },
      "geometry": {
        "type": "Point",
        "coordinates": [
          -12.692103764099295,
          45.199753076290165
        ]
      }
    },
    {
      "type": "Feature",
      "properties": {
        "norad_id": 41384,
        "name": "IRNSS-1F",
        "group": "gnss",
        "lat": 4.833197599699406,
        "lon": -162.09203202560448,
        "alt_km": 35774.83344607779,
        "timestamp": "2025-12-10T05:46:14.064570+00:00",
        "meta_object_name": "IRNSS-1F",
        "meta_object_id": "2016-015A",
        "meta_epoch": "2025-12-09T13:43:36.797088",
        "meta_mean_motion": 1.00270842,
        "meta_eccentricity": 0.0022494,
        "meta_inclination": 4.8725,
        "meta_ra_of_asc_node": 101.3785,
        "meta_arg_of_pericenter": 180.267,
        "meta_mean_anomaly": 35.1791,
        "meta_ephemeris_type": 0,
        "meta_classification_type": "U",
        "meta_norad_cat_id": 41384,
        "meta_element_set_no": 999,
        "meta_rev_at_epoch": 3576,
        "meta_bstar": 0,
        "meta_mean_motion_dot": 1.6e-06,
        "meta_mean_motion_ddot": 0,
        "tle_line1": "1 41384U 16015A   25343.57195367  .00000160  00000+0  00000+0 0  9998",
        "tle_line2": "2 41384   4.8725 101.3785 0022494 180.2670  35.1791  1.00270842 35769"
      },
      "geometry": {
        "type": "Point",
        "coordinates": [
          -162.09203202560448,
          4.833197599699406
        ]
      }
    },
    {
      "type": "Feature",
      "properties": {
        "norad_id": 41434,
        "name": "BEIDOU-2 IGSO-6 (C13)",
        "group": "gnss",
        "lat": -32.62291187947996,
        "lon": -118.33240409054689,
        "alt_km": 35536.431049455896,
        "timestamp": "2025-12-10T05:46:14.064600+00:00",
        "meta_object_name": "BEIDOU-2 IGSO-6 (C13)",
        "meta_object_id": "2016-021A",
        "meta_epoch": "2025-12-03T15:53:57.382080",
        "meta_mean_motion": 1.00293531,
        "meta_eccentricity": 0.00596341,
        "meta_inclination": 59.9536,
        "meta_ra_of_asc_node": 39.991,
        "meta_arg_of_pericenter": 228.541,
        "meta_mean_anomaly": 135.1173,
        "meta_ephemeris_type": 0,
        "meta_classification_type": "U",
        "meta_norad_cat_id": 41434,
        "meta_element_set_no": 999,
        "meta_rev_at_epoch": 3552,
        "meta_bstar": 0,
        "meta_mean_motion_dot": -1.61e-06,
        "meta_mean_motion_ddot": 0,
        "tle_line1": "1 41434U 16021A   25337.66246970 -.00000161  00000+0  00000+0 0  9993",
        "tle_line2": "2 41434  59.9536  39.9910 0059634 228.5410 135.1173  1.00293531 35525"
      },
      "geometry": {
        "type": "Point",
        "coordinates": [
          -118.33240409054689,
          -32.62291187947996
        ]
      }
    },
    {
      "type": "Feature",
      "properties": {
        "norad_id": 41469,
        "name": "IRNSS-1G",
        "group": "gnss",
        "lat": -1.0608192586197986,
        "lon": -65.11475765970376,
        "alt_km": 35807.81208805571,
        "timestamp": "2025-12-10T05:46:14.064624+00:00",
        "meta_object_name": "IRNSS-1G",
        "meta_object_id": "2016-027A",
        "meta_epoch": "2025-12-09T16:52:02.711424",
        "meta_mean_motion": 1.00250828,
        "meta_eccentricity": 0.0004632,
        "meta_inclination": 4.7256,
        "meta_ra_of_asc_node": 102.1782,
        "meta_arg_of_pericenter": 335.5749,
        "meta_mean_anomaly": 23.1656,
        "meta_ephemeris_type": 0,
        "meta_classification_type": "U",
        "meta_norad_cat_id": 41469,
        "meta_element_set_no": 999,
        "meta_rev_at_epoch": 3527,
        "meta_bstar": 0,
        "meta_mean_motion_dot": -3.35e-06,
        "meta_mean_motion_ddot": 0,
        "tle_line1": "1 41469U 16027A   25343.70280916 -.00000335  00000+0  00000+0 0  9990",
        "tle_line2": "2 41469   4.7256 102.1782 0004632 335.5749  23.1656  1.00250828 35278"
      },
      "geometry": {
        "type": "Point",
        "coordinates": [
          -65.11475765970376,
          -1.0608192586197986
        ]
      }
    },
    {
      "type": "Feature",
      "properties": {
        "norad_id": 41549,
        "name": "GSAT0211 (GALILEO 14)",
        "group": "gnss",
        "lat": -15.414759835493347,
        "lon": 57.9663036725615,
        "alt_km": 23236.36350205339,
        "timestamp": "2025-12-10T05:46:14.064642+00:00",
        "meta_object_name": "GSAT0211 (GALILEO 14)",
        "meta_object_id": "2016-030A",
        "meta_epoch": "2025-12-07T13:40:58.264320",
        "meta_mean_motion": 1.70472997,
        "meta_eccentricity": 0.00040128,
        "meta_inclination": 55.154,
        "meta_ra_of_asc_node": 226.9659,
        "meta_arg_of_pericenter": 14.4678,
        "meta_mean_anomaly": 345.6377,
        "meta_ephemeris_type": 0,
        "meta_classification_type": "U",
        "meta_norad_cat_id": 41549,
        "meta_element_set_no": 999,
        "meta_rev_at_epoch": 5940,
        "meta_bstar": 0,
        "meta_mean_motion_dot": 2.3e-07,
        "meta_mean_motion_ddot": 0,
        "tle_line1": "1 41549U 16030A   25341.57011880  .00000023  00000+0  00000+0 0  9991",
        "tle_line2": "2 41549  55.1540 226.9659 0004012  14.4678 345.6377  1.70472997 59400"
      },
      "geometry": {
        "type": "Point",
        "coordinates": [
          57.9663036725615,
          -15.414759835493347
        ]
      }
    },
    {
      "type": "Feature",
      "properties": {
        "norad_id": 41550,
        "name": "GSAT0210 (GALILEO 13)",
        "group": "gnss",
        "lat": 32.483654337373096,
        "lon": -106.79349818139946,
        "alt_km": 23221.969263957988,
        "timestamp": "2025-12-10T05:46:14.064664+00:00",
        "meta_object_name": "GSAT0210 (GALILEO 13)",
        "meta_object_id": "2016-030B",
        "meta_epoch": "2025-12-09T00:00:58.854816",
        "meta_mean_motion": 1.70473614,
        "meta_eccentricity": 0.0001366,
        "meta_inclination": 55.1527,
        "meta_ra_of_asc_node": 226.9246,
        "meta_arg_of_pericenter": 244.5421,
        "meta_mean_anomaly": 115.531,
        "meta_ephemeris_type": 0,
        "meta_classification_type": "U",
        "meta_norad_cat_id": 41550,
        "meta_element_set_no": 999,
        "meta_rev_at_epoch": 5942,
        "meta_bstar": 0,
        "meta_mean_motion_dot": 1.3e-07,
        "meta_mean_motion_ddot": 0,
        "tle_line1": "1 41550U 16030B   25343.00068119  .00000013  00000+0  00000+0 0  9999",
        "tle_line2": "2 41550  55.1527 226.9246 0001366 244.5421 115.5310  1.70473614 59420"
      },
      "geometry": {
        "type": "Point",
        "coordinates": [
          -106.79349818139946,
          32.483654337373096
        ]
      }
    },
    {
      "type": "Feature",
      "properties": {
        "norad_id": 41586,
        "name": "BEIDOU-2 G7 (C03)",
        "group": "gnss",
        "lat": -0.8533163105624101,
        "lon": -83.80256504899891,
        "alt_km": 35803.542958113445,
        "timestamp": "2025-12-10T05:46:14.064685+00:00",
        "meta_object_name": "BEIDOU-2 G7 (C03)",
        "meta_object_id": "2016-037A",
        "meta_epoch": "2025-12-09T19:14:08.361024",
        "meta_mean_motion": 1.00268395,
        "meta_eccentricity": 0.0004343,
        "meta_inclination": 1.7498,
        "meta_ra_of_asc_node": 67.7133,
        "meta_arg_of_pericenter": 1.0737,
        "meta_mean_anomaly": 48.9945,
        "meta_ephemeris_type": 0,
        "meta_classification_type": "U",
        "meta_norad_cat_id": 41586,
        "meta_element_set_no": 999,
        "meta_rev_at_epoch": 499,
        "meta_bstar": 0,
        "meta_mean_motion_dot": -3.51e-06,
        "meta_mean_motion_ddot": 0,
        "tle_line1": "1 41586U 16037A   25343.80148566 -.00000351  00000+0  00000+0 0  9994",
        "tle_line2": "2 41586   1.7498  67.7133 0004343   1.0737  48.9945  1.00268395  4999"
      },
      "geometry": {
        "type": "Point",
        "coordinates": [
          -83.80256504899891,
          -0.8533163105624101
        ]
      }
    }
  ]
}